{
"type": "FeatureCollection",
"name": "snr1",
"crs": { "type": "name", "properties": { "name": "urn:ogc:def:crs:EPSG::3857" } },
"features": [
{ "type": "Feature", "properties": { }, "geometry": { "type": "Polygon", "coordinates": [ [ [ 9030731.366590689867735, 1881605.188574853586033 ], [ 9030865.100982863456011, 1881525.238666489021853 ], [ 9030933.421813648194075, 1881368.246119154850021 ], [ 9030779.336535708978772, 1881324.637078228639439 ], [ 9030731.366590689867735, 1881605.188574853586033 ] ] ] } }
]
}
